ONEWEB-0545             
1 54647U 22166F   25030.79325448  .00000068  00000+0  13320-3 0  9990
2 54647  87.9333 344.1076 0001202  75.7361 284.3906 13.21825556105130
ONEWEB-0580             
1 54648U 22166G   25030.61503607 -.00000047  00000+0 -14588-3 0  9993
2 54648  87.9345 344.1278 0001551  72.4394 287.6909 13.21828096105158
ONEWEB-0582             
1 54649U 22166H   25030.80902536  .00000076  00000+0  15143-3 0  9997
2 54649  87.9325 344.1211 0001496  62.7416 297.3871 13.21824820105156
ONEWEB-0583             
1 54650U 22166J   25030.59297941  .00000032  00000+0  46382-4 0  9994
2 54650  87.9335 344.1598 0001689  80.6117 279.5208 13.21827054105617
ONEWEB-0584             
1 54651U 22166K   25030.61347329 -.00000040  00000+0 -12744-3 0  9999
2 54651  87.9340 344.1328 0001723  67.9468 292.1849 13.21824479105127
ONEWEB-0585             
1 54652U 22166L   25030.56300328  .00000036  00000+0  54711-4 0  9996
2 54652  87.9328 344.1448 0001933  81.4823 278.6530 13.21822868105593
ONEWEB-0586             
1 54653U 22166M   25030.80269500  .00000098  00000+0  20576-3 0  9999
2 54653  87.9335 344.1099 0001632  77.5773 282.5544 13.21830938105158
ONEWEB-0587             
1 54654U 22166N   25030.81217475 -.00001049  00000+0 -25712-2 0  9990
2 54654  87.9336 344.0598 0002113  83.8713 276.2661 13.21831378105319
